[{"OBJECT_NAME":"YAOGAN-2","OBJECT_ID":"2007-019A","EPOCH":"2026-03-09T14:35:50.831808","MEAN_MOTION":14.82510137,"ECCENTRICITY":0.001955,"INCLINATION":98.2784,"RA_OF_ASC_NODE":285.8374,"ARG_OF_PERICENTER":233.2135,"MEAN_ANOMALY":126.7283,"EPHEMERIS_TYPE":0,"CLASSIFICATION_TYPE":"U","NORAD_CAT_ID":31490,"ELEMENT_SET_NO":999,"REV_AT_EPOCH":1286,"BSTAR":0.00014435,"MEAN_MOTION_DOT":1.104e-5,"MEAN_MOTION_DDOT":0},{"OBJECT_NAME":"SL-14 R\/B","OBJECT_ID":"1983-037B","EPOCH":"2026-03-09T23:05:44.656224","MEAN_MOTION":14.86187856,"ECCENTRICITY":0.00176875,"INCLINATION":82.5045,"RA_OF_ASC_NODE":231.5305,"ARG_OF_PERICENTER":36.2922,"MEAN_ANOMALY":323.949,"EPHEMERIS_TYPE":0,"CLASSIFICATION_TYPE":"U","NORAD_CAT_ID":14033,"ELEMENT_SET_NO":999,"REV_AT_EPOCH":93138,"BSTAR":7.5110195e-5,"MEAN_MOTION_DOT":6.85e-6,"MEAN_MOTION_DDOT":0}]
